DUBAISAT-1              
1 35682U 09041B   26196.91716609  .00000375  00000+0  63132-4 0  9994
2 35682  98.0086 329.8660 0009889 346.2554  13.8385 14.75167272909338
OCEANSAT-2              
1 35931U 09051A   26196.93695997 -.00000063  00000+0 -17631-4 0  9999
2 35931  98.2320 180.9180 0017389 151.3516 208.8610 13.99655986883357
WORLDVIEW-2 (WV-2)      
1 35946U 09055A   26196.90276241  .00000042  00000+0  28367-4 0  9996
2 35946  98.4756 269.9614 0005342 128.1106 232.0564 14.37907022879773
SMOS                    
1 36036U 09059A   26196.75238376  .00000125  00000+0  53837-4 0  9993
2 36036  98.4429  23.6687 0001162  97.3009 262.8311 14.39736269877562
YAOGAN-7                
1 36110U 09069A   26196.25148093  .00000200  00000+0  34958-4 0  9995
2 36110  98.0033  81.9406 0023497 311.1420  48.7762 14.78035538893773
TANDEM-X                
1 36605U 10030A   26188.47915494  .00000386  00000+0  21566-4 0  9992
2 36605  97.4457 195.8973 0001887  94.3019 265.8431 15.19154052889726
CARTOSAT-2B             
1 36795U 10035A   26196.96448714  .00000165  00000+0  29611-4 0  9990
2 36795  97.9941 247.3272 0012688  97.4203 262.8450 14.78650486864103
YAOGAN-10               
1 36834U 10038A   26196.98517216  .00001280  00000+0  15482-3 0  9992
2 36834  97.8967 220.1597 0001686  82.8359   2.4352 14.85432808861480
COSMO-SKYMED 4          
1 37216U 10060A   26196.93319747  .00000629  00000+0  85596-4 0  9996
2 37216  97.8885  20.1169 0001488  86.0713 274.0670 14.82150178848824
RESOURCESAT-2           
1 37387U 11015A   26196.87559387  .00000026  00000+0  31848-4 0  9997
2 37387  98.7632 264.1172 0011589 169.1554 190.9876 14.21599633790259
HAIYANG-2A              
1 37781U 11043A   26196.94950600 -.00000210  00000+0 -17949-3 0  9999
2 37781  99.3395 198.9663 0002326  20.3863 339.7378 13.73273628750603
RASAT                   
1 37791U 11044D   26196.94296145  .00000052  00000+0  17510-4 0  9995
2 37791  98.0587 287.9013 0021922 100.4916 348.4086 14.68192467797401
SRMSAT                  
1 37841U 11058D   26196.43842265  .00000333  00000+0  37014-4 0  9993
2 37841  19.9710 248.4743 0011765 153.8769 331.6515 14.11581130761815
PLEIADES 1A             
1 38012U 11076F   26196.94337625  .00000007  00000+0  11330-4 0  9990
2 38012  98.1974 271.6583 0001669  78.9308   8.1191 14.58546526776188
ZIYUAN 1-02C (ZY 1-02C) 
1 38038U 11079A   26196.95877492  .00000108  00000+0  49558-4 0  9998
2 38038  98.4065 263.6642 0005628 212.2255 269.2679 14.38235593763342
ARIRANG-3 (KOMPSAT-3)   
1 38338U 12025B   26196.97859475  .00000184  00000+0  45799-4 0  9993
2 38338  98.1185 153.9447 0006176  36.7918 323.3707 14.62229391755557
EXACTVIEW-1 (ADS-1B)    
1 38709U 12039C   26196.88872129  .00000035  00000+0  34982-4 0  9998
2 38709  98.9806 314.9310 0011955  89.7225 270.5323 14.24992315726797
SPOT 6                  
1 38755U 12047A   26196.94219008 -.00000177  00000+0 -28318-4 0  9991
2 38755  98.2112 263.9123 0001116  85.8920 274.2407 14.58537959737245
PLEIADES 1B             
1 39019U 12068A   26196.96078832 -.00000149  00000+0 -22266-4 0  9993
2 39019  98.1946 271.6146 0001574  78.9052 281.2324 14.58533542725046
GOKTURK 2               
1 39030U 12073A   26196.96886919  .00000415  00000+0  67857-4 0  9994
2 39030  97.6803  32.9564 0000946  94.5668 265.5650 14.75569122728756
LANDSAT 8               
1 39084U 13008A   26196.86608935  .00000150  00000+0  43494-4 0  9998
2 39084  98.2290 266.6584 0001379  93.9816 266.1540 14.57094696702070
SARAL                   
1 39086U 13009A   26196.95043745  .00000014  00000+0  20973-4 0  9999
2 39086  98.5555  23.1540 0001742 164.8094 195.3143 14.32895907699723
GAOFEN-1                
1 39150U 13018A   26196.93207067 -.00000128  00000+0 -11017-4 0  9995
2 39150  97.9091 268.4139 0017083 168.7601 191.3993 14.76517962712481
VNREDSAT 1              
1 39160U 13021B   26196.98262041  .00000117  00000+0  30350-4 0  9995
2 39160  97.9068 249.2914 0001594  79.7647 280.3737 14.64883674704507
ARIRANG-5 (KOMPSAT-5)   
1 39227U 13042A   26196.96414187  .00000637  00000+0  49828-4 0  9997
2 39227  97.6202  23.2604 0005364  56.0634 304.1102 15.04496873708182
SKYSAT-A                
1 39418U 13066C   26196.09964842  .00001524  00000+0  89294-4 0  9994
2 39418  97.3805 244.6073 0020508 213.8194 146.1731 15.13115170692700
DUBAISAT-2              
1 39419U 13066D   26196.95773743  .00001510  00000+0  95713-4 0  9996
2 39419  97.4576 186.3538 0009292 300.2821  59.7489 15.10378418690733
GPM-CORE                
1 39574U 14009C   26196.88755684  .00003288  00000+0  74617-4 0  9996
2 39574  64.9691 211.9660 0010938 262.3326  97.6572 15.45048158702247
SENTINEL-1A             
1 39634U 14016A   26196.96176132 -.00000055  00000+0 -20525-5 0  9996
2 39634  98.1768 204.0743 0001404  86.3602 273.7758 14.59195854654218
KAZEOSAT 1              
1 39731U 14024A   26196.95541237 -.00000081  00000+0 -11747-4 0  9998
2 39731  98.3203 268.6850 0001225  82.1571 277.9758 14.42036823642706
