OBJECT_NAME,OBJECT_ID,EPOCH,MEAN_MOTION,ECCENTRICITY,INCLINATION,RA_OF_ASC_NODE,ARG_OF_PERICENTER,MEAN_ANOMALY,EPHEMERIS_TYPE,CLASSIFICATION_TYPE,NORAD_CAT_ID,ELEMENT_SET_NO,REV_AT_EPOCH,BSTAR,MEAN_MOTION_DOT,MEAN_MOTION_DDOT
DUBAISAT-1,2009-041B,2026-07-15T22:00:43.150176,14.75167272,.00098892,98.0086,329.8660,346.2554,13.8385,0,U,35682,999,90933,.63131965E-4,.375E-5,0
OCEANSAT-2,2009-051A,2026-07-15T22:29:13.341408,13.99655986,.00173893,98.2320,180.9180,151.3516,208.8610,0,U,35931,999,88335,-.17631006E-4,-.63E-6,0
WORLDVIEW-2 (WV-2),2009-055A,2026-07-15T21:39:58.672224,14.37907022,.00053424,98.4756,269.9614,128.1106,232.0564,0,U,35946,999,87977,.28366674E-4,.42E-6,0
SMOS,2009-059A,2026-07-15T18:03:25.956864,14.39736269,.00011621,98.4429,23.6687,97.3009,262.8311,0,U,36036,999,87756,.53837416E-4,.125E-5,0
YAOGAN-7,2009-069A,2026-07-15T06:02:07.952352,14.78035538,.00234971,98.0033,81.9406,311.1420,48.7762,0,U,36110,999,89377,.34957606E-4,.2E-5,0
TANDEM-X,2010-030A,2026-07-07T11:29:58.986816,15.19154052,.0001887,97.4457,195.8973,94.3019,265.8431,0,U,36605,999,88972,.21566E-4,.386E-5,0
CARTOSAT-2B,2010-035A,2026-07-15T23:08:51.688896,14.78650486,.00126885,97.9941,247.3272,97.4203,262.8450,0,U,36795,999,86410,.29610625E-4,.165E-5,0
YAOGAN-10,2010-038A,2026-07-15T23:38:38.874624,14.85432808,.00016866,97.8967,220.1597,82.8359,2.4352,0,U,36834,999,86148,.15482127E-3,.128E-4,0
COSMO-SKYMED 4,2010-060A,2026-07-15T22:23:48.261408,14.82150178,.0001488,97.8885,20.1169,86.0713,274.0670,0,U,37216,999,84882,.85596273E-4,.629E-5,0
RESOURCESAT-2,2011-015A,2026-07-15T21:00:51.310368,14.21599633,.0011589,98.7632,264.1172,169.1554,190.9876,0,U,37387,999,79025,.31847941E-4,.26E-6,0
HAIYANG-2A,2011-043A,2026-07-15T22:47:17.318400,13.73273628,.00023269,99.3395,198.9663,20.3863,339.7378,0,U,37781,999,75060,-.17949048E-3,-.21E-5,0
RASAT,2011-044D,2026-07-15T22:37:51.869280,14.68192467,.00219228,98.0587,287.9013,100.4916,348.4086,0,U,37791,999,79740,.1751047E-4,.52E-6,0
SRMSAT,2011-058D,2026-07-15T10:31:19.716960,14.11581130,.00117659,19.9710,248.4743,153.8769,331.6515,0,U,37841,999,76181,.37014491E-4,.333E-5,0
PLEIADES 1A,2011-076F,2026-07-15T22:38:27.708000,14.58546526,.00016691,98.1974,271.6583,78.9308,8.1191,0,U,38012,999,77618,.11330372E-4,.7E-7,0
ZIYUAN 1-02C (ZY 1-02C),2011-079A,2026-07-15T23:00:38.153088,14.38235593,.00056284,98.4065,263.6642,212.2255,269.2679,0,U,38038,999,76334,.49558222E-4,.108E-5,0
ARIRANG-3 (KOMPSAT-3),2012-025B,2026-07-15T23:29:10.586400,14.62229391,.00061765,98.1185,153.9447,36.7918,323.3707,0,U,38338,999,75555,.45799332E-4,.184E-5,0
EXACTVIEW-1 (ADS-1B),2012-039C,2026-07-15T21:19:45.519456,14.24992315,.00119555,98.9806,314.9310,89.7225,270.5323,0,U,38709,999,72679,.34981974E-4,.35E-6,0
SPOT 6,2012-047A,2026-07-15T22:36:45.222912,14.58537959,.00011163,98.2112,263.9123,85.8920,274.2407,0,U,38755,999,73724,-.2831774E-4,-.177E-5,0
PLEIADES 1B,2012-068A,2026-07-15T23:03:32.110848,14.58533542,.00015742,98.1946,271.6146,78.9052,281.2324,0,U,39019,999,72504,-.22265962E-4,-.149E-5,0
GOKTURK 2,2012-073A,2026-07-15T23:15:10.298016,14.75569122,.00009468,97.6803,32.9564,94.5668,265.5650,0,U,39030,999,72875,.67857136E-4,.415E-5,0
LANDSAT 8,2013-008A,2026-07-15T20:47:10.119840,14.57094696,.00013795,98.2290,266.6584,93.9816,266.1540,0,U,39084,999,70207,.4349447E-4,.15E-5,0
SARAL,2013-009A,2026-07-15T22:48:37.795680,14.32895907,.00017426,98.5555,23.1540,164.8094,195.3143,0,U,39086,999,69972,.20972802E-4,.14E-6,0
GAOFEN-1,2013-018A,2026-07-15T22:22:10.905888,14.76517962,.00170839,97.9091,268.4139,168.7601,191.3993,0,U,39150,999,71248,-.11016712E-4,-.128E-5,0
VNREDSAT 1,2013-021B,2026-07-15T23:34:58.403424,14.64883674,.00015948,97.9068,249.2914,79.7647,280.3737,0,U,39160,999,70450,.30349517E-4,.117E-5,0
ARIRANG-5 (KOMPSAT-5),2013-042A,2026-07-15T23:08:21.857568,15.04496873,.0005364,97.6202,23.2604,56.0634,304.1102,0,U,39227,999,70818,.49828113E-4,.637E-5,0
SKYSAT-A,2013-066C,2026-07-15T02:23:29.623488,15.13115170,.00205081,97.3805,244.6073,213.8194,146.1731,0,U,39418,999,69270,.89294429E-4,.1524E-4,0
DUBAISAT-2,2013-066D,2026-07-15T22:59:08.513952,15.10378418,.00092929,97.4576,186.3538,300.2821,59.7489,0,U,39419,999,69073,.95712944E-4,.151E-4,0
GPM-CORE,2014-009C,2026-07-15T21:18:04.910976,15.45048158,.00109383,64.9691,211.9660,262.3326,97.6572,0,U,39574,999,70224,.74616526E-4,.3288E-4,0
SENTINEL-1A,2014-016A,2026-07-15T23:04:56.178048,14.59195854,.00014046,98.1768,204.0743,86.3602,273.7758,0,U,39634,999,65421,-.2052454E-5,-.55E-6,0
KAZEOSAT 1,2014-024A,2026-07-15T22:55:47.628768,14.42036823,.00012257,98.3203,268.6850,82.1571,277.9758,0,U,39731,999,64270,-.11746508E-4,-.81E-6,0
